KAITUO 1B               
1 40912U 15049P   17257.49930119  .00002820  00000-0  14213-3 0  9999
2 40912  97.4524 263.8830 0013833 250.6214 260.9306 15.17902049109832
TIANWANG 1C (TW-1C)     
1 40926U 15051B   17257.80562990  .00010417  00000-0  22924-3 0  9999
2 40926  97.2217 296.7040 0010694 193.8353 254.6926 15.44094818110742
TIANWANG 1B (TW-1B)     
1 40927U 15051C   17257.87543351  .00010462  00000-0  23911-3 0  9994
2 40927  97.2305 296.7509 0010233 204.4042 242.5900 15.42968824110691
TIANWANG 1A (TW-1A)     
1 40928U 15051D   17257.52124130  .00005073  00000-0  14326-3 0  9999
2 40928  97.2203 291.7282 0010695 231.6130 271.7513 15.36761228110410
LAPAN-A2 (IO-86)        
1 40931U 15052B   17257.47356190  .00000819  00000-0  25087-4 0  9991
2 40931   6.0006 316.1161 0013218  64.7053 295.4490 14.76542629106185
LQSAT                   
1 40958U 15057A   17257.71291910  .00000157  00000-0  32087-4 0  9993
2 40958  97.9716 331.4404 0019137 136.0907 224.1822 14.72985544104299
CHUBUSAT-2              
1 41338U 16012B   17257.40282746  .00000565  00000-0  37691-4 0  9990
2 41338  31.0029 265.6265 0013953 222.7313 137.2238 14.99800648 86390
CHUBUSAT-3              
1 41339U 16012C   17257.38548359  .00000777  00000-0  54163-4 0  9991
2 41339  31.0106 264.7405 0013455 230.6764 129.2670 15.00003086 86371
OUFTI-1                 
1 41458U 16025C   17257.76845396  .00002101  00000-0  11558-3 0  9993
2 41458  98.1780 300.4608 0172340 350.9128   8.8981 15.03573829 76036
E-ST@R-II               
1 41459U 16025D   17257.79945837  .00002781  00000-0  15181-3 0  9998
2 41459  98.1760 300.4238 0173100 350.9168   8.8916 15.03382093 76032
AAUSAT 4                
1 41460U 16025E   17257.87394614  .00003513  00000-0  18977-3 0  9990
2 41460  98.1689 300.6628 0165832 348.5344  11.2107 15.04406648 76079
NUSAT 1 (LO-87)         
1 41557U 16033B   17257.84519797  .00002914  00000-0  11123-3 0  9994
2 41557  97.4583 337.3538 0015431  55.3695 304.8996 15.27368870 72116
BEESAT-4                
1 41619U 16040W   17257.14378086  .00002854  00000-0  13124-3 0  9994
2 41619  97.4540 318.6469 0013565 114.7897 245.4752 15.21086630 56110
PRATHAM                 
1 41783U 16059A   17257.76554983  .00000091  00000-0  27196-4 0  9992
2 41783  98.1584 318.1723 0032529 238.7147 121.0868 14.62858414 51698
ALSAT 1N                
1 41789U 16059G   17257.74824757  .00000252  00000-0  56999-4 0  9997
2 41789  98.1586 318.8302 0027161 232.0211 127.8537 14.64075842 51719
NAYIF-1 (EO-88)         
1 42017U 17008BX  17257.51917251  .00002703  00000-0  11685-3 0  9999
2 42017  97.4868 318.7777 0004921 266.4024  93.6650 15.23332580 32082
LILACSAT-1              
1 42725U 98067ME  17257.61636457  .00016268  00000-0  22338-3 0  9994
2 42725  51.6398 311.1268 0006119 295.0898  64.9458 15.57460373 17403
MAX VALIER SAT          
1 42778U 17036P   17257.59083335  .00001832  00000-0  86737-4 0  9992
2 42778  97.4434 316.3476 0011650 320.1301  39.9078 15.20558857 12616
